[{"OBJECT_NAME":"STARLINK-1547","OBJECT_ID":"2020-062Y","EPOCH":"2026-03-10T00:00:02.999808","MEAN_MOTION":15.64219484,"ECCENTRICITY":0.00047669,"INCLINATION":53.037,"RA_OF_ASC_NODE":277.3047,"ARG_OF_PERICENTER":159.1471,"MEAN_ANOMALY":36.803,"EPHEMERIS_TYPE":0,"CLASSIFICATION_TYPE":"U","NORAD_CAT_ID":46347,"ELEMENT_SET_NO":999,"REV_AT_EPOCH":594,"BSTAR":0.0023378956,"MEAN_MOTION_DOT":0.00232884,"MEAN_MOTION_DDOT":0},{"OBJECT_NAME":"PACE-1","OBJECT_ID":"2021-059AG","EPOCH":"2026-03-09T10:52:20.672256","MEAN_MOTION":15.66489825,"ECCENTRICITY":0.00026713,"INCLINATION":97.6852,"RA_OF_ASC_NODE":256.4197,"ARG_OF_PERICENTER":313.2963,"MEAN_ANOMALY":46.8073,"EPHEMERIS_TYPE":0,"CLASSIFICATION_TYPE":"U","NORAD_CAT_ID":48909,"ELEMENT_SET_NO":999,"REV_AT_EPOCH":26212,"BSTAR":0.00052434786,"MEAN_MOTION_DOT":0.000547,"MEAN_MOTION_DDOT":0}]
